start=new Date('2021-11-05T00:00:00.000Z').valueOf();
sats=[{"FILE":"3202404","GP_ID":"188951894","OBJECT_TYPE":"PAYLOAD","OBJECT_ID":"2020-006G","DECAY_DATE":null,"MEAN_ELEMENT_THEORY":"SGP4","ECCENTRICITY":"0.00018880","CLASSIFICATION_TYPE":"U","RA_OF_ASC_NODE":"205.4928","BSTAR":"0.00003629500000","REF_FRAME":"TEME","TIME_SYSTEM":"UTC","TLE_LINE1":"1 45050U 20006G   21308.90512111  .00000259  00000-0  36295-4 0  9991","EPHEMERIS_TYPE":"0","CENTER_NAME":"EARTH","REV_AT_EPOCH":"9744","PERIOD":"95.592","INCLINATION":"53.0523","MEAN_MOTION_DOT":"0.00000259","MEAN_ANOMALY":"286.8173","NORAD_CAT_ID":"45050","COUNTRY_CODE":"US","APOAPSIS":"548.536","LAUNCH_DATE":"2020-01-29","MEAN_MOTION":"15.06395068","SITE":"AFETR","PERIAPSIS":"545.921","MEAN_MOTION_DDOT":"0.0000000000000","ELEMENT_SET_NO":"999","OBJECT_NAME":"STARLINK-1140","RCS_SIZE":"LARGE","EPOCH":"2021-11-04T21:43:22.463904","ARG_OF_PERICENTER":"73.3023","TLE_LINE2":"2 45050  53.0523 205.4928 0001888  73.3023 286.8173 15.06395068 97449","SEMIMAJOR_AXIS":"6925.364"},{"EPHEMERIS_TYPE":"0","CENTER_NAME":"EARTH","REV_AT_EPOCH":"9744","TLE_LINE1":"1 45051U 20006H   21308.89854935  .00010855  00000-0  73945-3 0  9998","TIME_SYSTEM":"UTC","REF_FRAME":"TEME","CLASSIFICATION_TYPE":"U","RA_OF_ASC_NODE":"205.4794","BSTAR":"0.00073945000000","OBJECT_ID":"2020-006H","DECAY_DATE":null,"MEAN_ELEMENT_THEORY":"SGP4","ECCENTRICITY":"0.00017110","GP_ID":"188952645","OBJECT_TYPE":"PAYLOAD","FILE":"3202404","ELEMENT_SET_NO":"999","MEAN_MOTION_DDOT":"0.0000000000000","OBJECT_NAME":"STARLINK-1141","RCS_SIZE":"LARGE","EPOCH":"2021-11-04T21:33:54.663840","ARG_OF_PERICENTER":"85.8928","TLE_LINE2":"2 45051  53.0526 205.4794 0001711  85.8928 274.2256 15.06754008 97447","SEMIMAJOR_AXIS":"6924.264","SITE":"AFETR","PERIAPSIS":"544.944","LAUNCH_DATE":"2020-01-29","MEAN_MOTION":"15.06754008","APOAPSIS":"547.314","COUNTRY_CODE":"US","MEAN_MOTION_DOT":"0.00010855","MEAN_ANOMALY":"274.2256","NORAD_CAT_ID":"45051","INCLINATION":"53.0526","PERIOD":"95.570"},{"SITE":"AFETR","PERIAPSIS":"546.177","MEAN_MOTION_DDOT":"0.0000000000000","ELEMENT_SET_NO":"999","OBJECT_NAME":"STARLINK-1148","RCS_SIZE":"LARGE","EPOCH":"2021-11-04T21:53:59.784000","ARG_OF_PERICENTER":"59.6296","TLE_LINE2":"2 45052  53.0536 205.4567 0001544  59.6296 300.4845 15.06389352 97440","SEMIMAJOR_AXIS":"6925.381","APOAPSIS":"548.315","LAUNCH_DATE":"2020-01-29","MEAN_MOTION":"15.06389352","MEAN_MOTION_DOT":"0.00000976","MEAN_ANOMALY":"300.4845","NORAD_CAT_ID":"45052","COUNTRY_CODE":"US","PERIOD":"95.593","INCLINATION":"53.0536","TLE_LINE1":"1 45052U 20006J   21308.91249750  .00000976  00000-0  84451-4 0  9993","EPHEMERIS_TYPE":"0","CENTER_NAME":"EARTH","REV_AT_EPOCH":"9744","CLASSIFICATION_TYPE":"U","RA_OF_ASC_NODE":"205.4567","BSTAR":"0.00008445100000","TIME_SYSTEM":"UTC","REF_FRAME":"TEME","OBJECT_ID":"2020-006J","DECAY_DATE":null,"MEAN_ELEMENT_THEORY":"SGP4","ECCENTRICITY":"0.00015440","FILE":"3202404","GP_ID":"188953390","OBJECT_TYPE":"PAYLOAD"},{"SITE":"AFETR","PERIAPSIS":"542.696","EPOCH":"2021-11-04T22:21:05.848416","ARG_OF_PERICENTER":"84.2720","SEMIMAJOR_AXIS":"6921.811","TLE_LINE2":"2 45053  53.0005 203.6157 0001417  84.2720 275.8431 15.07554840 97456","OBJECT_NAME":"STARLINK-1155","MEAN_MOTION_DDOT":"0.0000000000000","ELEMENT_SET_NO":"999","RCS_SIZE":"LARGE","APOAPSIS":"544.657","MEAN_MOTION":"15.07554840","LAUNCH_DATE":"2020-01-29","MEAN_ANOMALY":"275.8431","NORAD_CAT_ID":"45053","MEAN_MOTION_DOT":"0.00018019","COUNTRY_CODE":"US","PERIOD":"95.519","INCLINATION":"53.0005","TLE_LINE1":"1 45053U 20006K   21308.93131769  .00018019  00000-0  11879-2 0  9995","REV_AT_EPOCH":"9745","CENTER_NAME":"EARTH","EPHEMERIS_TYPE":"0","RA_OF_ASC_NODE":"203.6157","BSTAR":"0.00118790000000","CLASSIFICATION_TYPE":"U","REF_FRAME":"TEME","TIME_SYSTEM":"UTC","DECAY_DATE":null,"MEAN_ELEMENT_THEORY":"SGP4","ECCENTRICITY":"0.00014170","OBJECT_ID":"2020-006K","FILE":"3202404","GP_ID":"188952138","OBJECT_TYPE":"PAYLOAD"},{"APOAPSIS":"548.382","LAUNCH_DATE":"2020-01-29","MEAN_MOTION":"15.06397973","PERIAPSIS":"546.058","SITE":"AFETR","RCS_SIZE":"LARGE","ELEMENT_SET_NO":"999","MEAN_MOTION_DDOT":"0.0000000000000","OBJECT_NAME":"STARLINK-1156","TLE_LINE2":"2 45054  53.0552 205.4695 0001678  62.2311 297.8848 15.06397973 97448","SEMIMAJOR_AXIS":"6925.355","EPOCH":"2021-11-04T21:48:41.419872","ARG_OF_PERICENTER":"62.2311","PERIOD":"95.592","INCLINATION":"53.0552","MEAN_MOTION_DOT":"0.00002398","NORAD_CAT_ID":"45054","MEAN_ANOMALY":"297.8848","COUNTRY_CODE":"US","CLASSIFICATION_TYPE":"U","BSTAR":"0.00017985000000","RA_OF_ASC_NODE":"205.4695","TIME_SYSTEM":"UTC","REF_FRAME":"TEME","TLE_LINE1":"1 45054U 20006L   21308.90881273  .00002398  00000-0  17985-3 0  9993","EPHEMERIS_TYPE":"0","CENTER_NAME":"EARTH","REV_AT_EPOCH":"9744","FILE":"3202404","OBJECT_TYPE":"PAYLOAD","GP_ID":"188952388","OBJECT_ID":"2020-006L","ECCENTRICITY":"0.00016780","MEAN_ELEMENT_THEORY":"SGP4","DECAY_DATE":null},{"OBJECT_ID":"2020-006P","ECCENTRICITY":"0.00014330","DECAY_DATE":null,"MEAN_ELEMENT_THEORY":"SGP4","FILE":"3202404","OBJECT_TYPE":"PAYLOAD","GP_ID":"188953139","TLE_LINE1":"1 45057U 20006P   21308.92354541  .00002089  00000-0  15908-3 0  9991","EPHEMERIS_TYPE":"0","CENTER_NAME":"EARTH","REV_AT_EPOCH":"9745","CLASSIFICATION_TYPE":"U","BSTAR":"0.00015908000000","RA_OF_ASC_NODE":"205.3974","TIME_SYSTEM":"UTC","REF_FRAME":"TEME","MEAN_MOTION_DOT":"0.00002089","NORAD_CAT_ID":"45057","MEAN_ANOMALY":"292.1793","COUNTRY_CODE":"US","PERIOD":"95.592","INCLINATION":"53.0535","PERIAPSIS":"546.216","SITE":"AFETR","RCS_SIZE":"LARGE","ELEMENT_SET_NO":"999","MEAN_MOTION_DDOT":"0.0000000000000","OBJECT_NAME":"STARLINK-1159","SEMIMAJOR_AXIS":"6925.343","TLE_LINE2":"2 45057  53.0535 205.3974 0001433  67.9348 292.1793 15.06401776 97457","EPOCH":"2021-11-04T22:09:54.323424","ARG_OF_PERICENTER":"67.9348","APOAPSIS":"548.201","LAUNCH_DATE":"2020-01-29","MEAN_MOTION":"15.06401776"},{"PERIOD":"95.592","INCLINATION":"53.0547","NORAD_CAT_ID":"45058","MEAN_ANOMALY":"296.0691","MEAN_MOTION_DOT":"0.00000483","COUNTRY_CODE":"US","APOAPSIS":"548.528","MEAN_MOTION":"15.06400376","LAUNCH_DATE":"2020-01-29","PERIAPSIS":"545.897","SITE":"AFETR","SEMIMAJOR_AXIS":"6925.347","TLE_LINE2":"2 45058  53.0547 205.4461 0001900  64.0494 296.0691 15.06400376 97457","ARG_OF_PERICENTER":"64.0494","EPOCH":"2021-11-04T21:59:17.609856","RCS_SIZE":"LARGE","MEAN_MOTION_DDOT":"0.0000000000000","OBJECT_NAME":"STARLINK-1162","ELEMENT_SET_NO":"999","FILE":"3202404","OBJECT_TYPE":"PAYLOAD","GP_ID":"188952897","ECCENTRICITY":"0.00019000","MEAN_ELEMENT_THEORY":"SGP4","DECAY_DATE":null,"OBJECT_ID":"2020-006Q","BSTAR":"0.00005136000000","RA_OF_ASC_NODE":"205.4461","CLASSIFICATION_TYPE":"U","REF_FRAME":"TEME","TIME_SYSTEM":"UTC","TLE_LINE1":"1 45058U 20006Q   21308.91617604  .00000483  00000-0  51360-4 0  9992","CENTER_NAME":"EARTH","REV_AT_EPOCH":"9745","EPHEMERIS_TYPE":"0"},{"LAUNCH_DATE":"2020-01-29","MEAN_MOTION":"15.06415931","APOAPSIS":"548.407","ELEMENT_SET_NO":"999","MEAN_MOTION_DDOT":"0.0000000000000","OBJECT_NAME":"STARLINK-1165","RCS_SIZE":"LARGE","ARG_OF_PERICENTER":"61.1053","EPOCH":"2021-11-04T22:31:08.510880","TLE_LINE2":"2 45059  53.0539 205.3356 0001794  61.1053 299.0116 15.06415931 97459","SEMIMAJOR_AXIS":"6925.300","SITE":"AFETR","PERIAPSIS":"545.922","INCLINATION":"53.0539","PERIOD":"95.591","COUNTRY_CODE":"US","MEAN_MOTION_DOT":"0.00011202","MEAN_ANOMALY":"299.0116","NORAD_CAT_ID":"45059","REF_FRAME":"TEME","TIME_SYSTEM":"UTC","CLASSIFICATION_TYPE":"U","RA_OF_ASC_NODE":"205.3356","BSTAR":"0.00076943000000","EPHEMERIS_TYPE":"0","CENTER_NAME":"EARTH","REV_AT_EPOCH":"9745","TLE_LINE1":"1 45059U 20006R   21308.93829295  .00011202  00000-0  76943-3 0  9990","GP_ID":"188951645","OBJECT_TYPE":"PAYLOAD","FILE":"3202404","OBJECT_ID":"2020-006R","DECAY_DATE":null,"MEAN_ELEMENT_THEORY":"SGP4","ECCENTRICITY":"0.00017940"},{"EPHEMERIS_TYPE":"0","CENTER_NAME":"EARTH","REV_AT_EPOCH":"9745","TLE_LINE1":"1 45060U 20006S   21308.93460739  .00003369  00000-0  24490-3 0  9991","TIME_SYSTEM":"UTC","REF_FRAME":"TEME","CLASSIFICATION_TYPE":"U","RA_OF_ASC_NODE":"205.3594","BSTAR":"0.00024490000000","OBJECT_ID":"2020-006S","DECAY_DATE":null,"MEAN_ELEMENT_THEORY":"SGP4","ECCENTRICITY":"0.00015930","GP_ID":"188951895","OBJECT_TYPE":"PAYLOAD","FILE":"3202404","MEAN_MOTION_DDOT":"0.0000000000000","ELEMENT_SET_NO":"999","OBJECT_NAME":"STARLINK-1166","RCS_SIZE":"LARGE","EPOCH":"2021-11-04T22:25:50.078496","ARG_OF_PERICENTER":"72.3811","SEMIMAJOR_AXIS":"6925.335","TLE_LINE2":"2 45060  53.0539 205.3594 0001593  72.3811 287.7352 15.06404431 97457","SITE":"AFETR","PERIAPSIS":"546.097","LAUNCH_DATE":"2020-01-29","MEAN_MOTION":"15.06404431","APOAPSIS":"548.303","COUNTRY_CODE":"US","MEAN_MOTION_DOT":"0.00003369","MEAN_ANOMALY":"287.7352","NORAD_CAT_ID":"45060","INCLINATION":"53.0539","PERIOD":"95.592"},{"OBJECT_ID":"2020-006T","ECCENTRICITY":"0.00015280","DECAY_DATE":null,"MEAN_ELEMENT_THEORY":"SGP4","FILE":"3202404","OBJECT_TYPE":"PAYLOAD","GP_ID":"188952646","TLE_LINE1":"1 45061U 20006T   21308.94197122  .00002045  00000-0  15617-3 0  9997","EPHEMERIS_TYPE":"0","CENTER_NAME":"EARTH","REV_AT_EPOCH":"9745","CLASSIFICATION_TYPE":"U","BSTAR":"0.00015617000000","RA_OF_ASC_NODE":"205.3259","TIME_SYSTEM":"UTC","REF_FRAME":"TEME","MEAN_MOTION_DOT":"0.00002045","NORAD_CAT_ID":"45061","MEAN_ANOMALY":"291.0943","COUNTRY_CODE":"US","PERIOD":"95.592","INCLINATION":"53.0547","PERIAPSIS":"546.154","SITE":"AFETR","RCS_SIZE":"LARGE","MEAN_MOTION_DDOT":"0.0000000000000","ELEMENT_SET_NO":"999","OBJECT_NAME":"STARLINK-1169","SEMIMAJOR_AXIS":"6925.347","TLE_LINE2":"2 45061  53.0547 205.3259 0001528  69.0209 291.0943 15.06400399 97450","ARG_OF_PERICENTER":"69.0209","EPOCH":"2021-11-04T22:36:26.313408","APOAPSIS":"548.271","LAUNCH_DATE":"2020-01-29","MEAN_MOTION":"15.06400399"}];
